[{"OBJECT_NAME":"STARLINK-1019","OBJECT_ID":"2019-074M","EPOCH":"2026-03-10T00:00:02.999808","MEAN_MOTION":15.81422957,"ECCENTRICITY":0.00012296,"INCLINATION":53.0417,"RA_OF_ASC_NODE":135.1493,"ARG_OF_PERICENTER":210.7018,"MEAN_ANOMALY":191.1896,"EPHEMERIS_TYPE":0,"CLASSIFICATION_TYPE":"U","NORAD_CAT_ID":44724,"ELEMENT_SET_NO":999,"REV_AT_EPOCH":567,"BSTAR":0.0009041504,"MEAN_MOTION_DOT":0.00186361,"MEAN_MOTION_DDOT":0},{"OBJECT_NAME":"STARLINK-36799","OBJECT_ID":"2026-037AC","EPOCH":"2026-03-09T22:00:01.999584","MEAN_MOTION":15.82009116,"ECCENTRICITY":0.0001577,"INCLINATION":42.9988,"RA_OF_ASC_NODE":196.9067,"ARG_OF_PERICENTER":263.0507,"MEAN_ANOMALY":334.0241,"EPHEMERIS_TYPE":0,"CLASSIFICATION_TYPE":"U","NORAD_CAT_ID":67958,"ELEMENT_SET_NO":999,"REV_AT_EPOCH":323,"BSTAR":7.1748924e-5,"MEAN_MOTION_DOT":0.00014595,"MEAN_MOTION_DDOT":0}]
